[
    {
        "Altitude(m)": 703251.1655368386,
        "Argument of Periapsis(deg)": 0.0,
        "Eccentricity": 0.0,
        "Inclination(deg)": 45.0,
        "Latitude(deg)": 22.54590177520588,
        "Longitude(deg)": 154.4191462745128,
        "Mean Anomaly(deg)": 32.72730000000001,
        "RAAN(deg)": 229.99999999999997,
        "Satellite Name": "Constellation 1 1014",
        "Satellite Number": 1014,
        "Semi-Major Axis(m)": 7083131.272910544,
        "Time(s)": 0
    },
    {
        "Altitude(m)": 703255.2933193665,
        "Argument of Periapsis(deg)": 5.994800624540561e-05,
        "Eccentricity": 0.0,
        "Inclination(deg)": 45.0,
        "Latitude(deg)": 22.58521287962384,
        "Longitude(deg)": 154.46526599189906,
        "Mean Anomaly(deg)": 32.7880011402499,
        "RAAN(deg)": 229.99994341083442,
        "Satellite Name": "Constellation 1 1014",
        "Satellite Number": 1014,
        "Semi-Major Axis(m)": 7083131.272910544,
        "Time(s)": 1
    },
    {
        "Altitude(m)": 703259.4328724305,
        "Argument of Periapsis(deg)": 0.00011989601249081122,
        "Eccentricity": 0.0,
        "Inclination(deg)": 45.0,
        "Latitude(deg)": 22.624508095982648,
        "Longitude(deg)": 154.51141421431825,
        "Mean Anomaly(deg)": 32.848702280499836,
        "RAAN(deg)": 229.99988682166887,
        "Satellite Name": "Constellation 1 1014",
        "Satellite Number": 1014,
        "Semi-Major Axis(m)": 7083131.272910544,
        "Time(s)": 2
    },
    {
        "Altitude(m)": 703263.58416135,
        "Argument of Periapsis(deg)": 0.00017984401873621686,
        "Eccentricity": 0.0,
        "Inclination(deg)": 45.0,
        "Latitude(deg)": 22.663787384877754,
        "Longitude(deg)": 154.55759100155575,
        "Mean Anomaly(deg)": 32.90940342074972,
        "RAAN(deg)": 229.99983023250329,
        "Satellite Name": "Constellation 1 1014",
        "Satellite Number": 1014,
        "Semi-Major Axis(m)": 7083131.272910544,
        "Time(s)": 3
    },
    {
        "Altitude(m)": 703267.7471514001,
        "Argument of Periapsis(deg)": 0.00023979202498162244,
        "Eccentricity": 0.0,
        "Inclination(deg)": 45.0,
        "Latitude(deg)": 22.70305070684839,
        "Longitude(deg)": 154.603796413417,
        "Mean Anomaly(deg)": 32.97010456099961,
        "RAAN(deg)": 229.99977364333768,
        "Satellite Name": "Constellation 1 1014",
        "Satellite Number": 1014,
        "Semi-Major Axis(m)": 7083131.272910544,
        "Time(s)": 4
    },
    {
        "Altitude(m)": 703271.9218078178,
        "Argument of Periapsis(deg)": 0.00029974003122702807,
        "Eccentricity": 0.0,
        "Inclination(deg)": 45.0,
        "Latitude(deg)": 22.7422980223773,
        "Longitude(deg)": 154.650030509727,
        "Mean Anomaly(deg)": 33.03080570124949,
        "RAAN(deg)": 229.99971705417212,
        "Satellite Name": "Constellation 1 1014",
        "Satellite Number": 1014,
        "Semi-Major Axis(m)": 7083131.272910544,
        "Time(s)": 5
    },
    {
        "Altitude(m)": 703276.1080957954,
        "Argument of Periapsis(deg)": 0.00035968803747243373,
        "Eccentricity": 0.0,
        "Inclination(deg)": 45.0,
        "Latitude(deg)": 22.781529291890806,
        "Longitude(deg)": 154.69629335033028,
        "Mean Anomaly(deg)": 33.09150684149943,
        "RAAN(deg)": 229.99966046500657,
        "Satellite Name": "Constellation 1 1014",
        "Satellite Number": 1014,
        "Semi-Major Axis(m)": 7083131.272910544,
        "Time(s)": 6
    },
    {
        "Altitude(m)": 703280.3059804845,
        "Argument of Periapsis(deg)": 0.00041963604371783933,
        "Eccentricity": 0.0,
        "Inclination(deg)": 45.0,
        "Latitude(deg)": 22.820744475758904,
        "Longitude(deg)": 154.74258482699364,
        "Mean Anomaly(deg)": 33.152207981749314,
        "RAAN(deg)": 229.99960387584102,
        "Satellite Name": "Constellation 1 1014",
        "Satellite Number": 1014,
        "Semi-Major Axis(m)": 7083131.272910544,
        "Time(s)": 7
    },
    {
        "Altitude(m)": 703284.515426995,
        "Argument of Periapsis(deg)": 0.0004795840499632449,
        "Eccentricity": 0.0,
        "Inclination(deg)": 45.0,
        "Latitude(deg)": 22.859943534293972,
        "Longitude(deg)": 154.7889053357943,
        "Mean Anomaly(deg)": 33.2129091219992,
        "RAAN(deg)": 229.9995472866754,
        "Satellite Name": "Constellation 1 1014",
        "Satellite Number": 1014,
        "Semi-Major Axis(m)": 7083131.272910544,
        "Time(s)": 8
    },
    {
        "Altitude(m)": 703288.7364004031,
        "Argument of Periapsis(deg)": 0.0005395320562086505,
        "Eccentricity": 0.0,
        "Inclination(deg)": 45.0,
        "Latitude(deg)": 22.899126427752403,
        "Longitude(deg)": 154.8352547685371,
        "Mean Anomaly(deg)": 33.27361026224904,
        "RAAN(deg)": 229.99949069750983,
        "Satellite Name": "Constellation 1 1014",
        "Satellite Number": 1014,
        "Semi-Major Axis(m)": 7083131.272910544,
        "Time(s)": 9
    },
    {
        "Altitude(m)": 703292.9688657367,
        "Argument of Periapsis(deg)": 0.0005994800624540561,
        "Eccentricity": 0.0,
        "Inclination(deg)": 45.0,
        "Latitude(deg)": 22.93829311633347,
        "Longitude(deg)": 154.88163318514307,
        "Mean Anomaly(deg)": 33.33431140249903,
        "RAAN(deg)": 229.99943410834427,
        "Satellite Name": "Constellation 1 1014",
        "Satellite Number": 1014,
        "Semi-Major Axis(m)": 7083131.272910544,
        "Time(s)": 10
    },
    {
        "Altitude(m)": 703297.2127879815,
        "Argument of Periapsis(deg)": 0.0006594280686994618,
        "Eccentricity": 0.0,
        "Inclination(deg)": 45.0,
        "Latitude(deg)": 22.977443560179132,
        "Longitude(deg)": 154.9280406455512,
        "Mean Anomaly(deg)": 33.39501254274886,
        "RAAN(deg)": 229.99937751917872,
        "Satellite Name": "Constellation 1 1014",
        "Satellite Number": 1014,
        "Semi-Major Axis(m)": 7083131.272910544,
        "Time(s)": 11
    },
    {
        "Altitude(m)": 703301.468132093,
        "Argument of Periapsis(deg)": 0.0007193760749448675,
        "Eccentricity": 0.0,
        "Inclination(deg)": 45.0,
        "Latitude(deg)": 23.016577719374474,
        "Longitude(deg)": 154.97447720971954,
        "Mean Anomaly(deg)": 33.45571368299875,
        "RAAN(deg)": 229.99932093001317,
        "Satellite Name": "Constellation 1 1014",
        "Satellite Number": 1014,
        "Semi-Major Axis(m)": 7083131.272910544,
        "Time(s)": 12
    },
    {
        "Altitude(m)": 703305.7348629698,
        "Argument of Periapsis(deg)": 0.000779324081190273,
        "Eccentricity": 0.0,
        "Inclination(deg)": 45.0,
        "Latitude(deg)": 23.055695553947086,
        "Longitude(deg)": 155.02094293762397,
        "Mean Anomaly(deg)": 33.51641482324869,
        "RAAN(deg)": 229.99926434084762,
        "Satellite Name": "Constellation 1 1014",
        "Satellite Number": 1014,
        "Semi-Major Axis(m)": 7083131.272910544,
        "Time(s)": 13
    },
    {
        "Altitude(m)": 703310.0129454953,
        "Argument of Periapsis(deg)": 0.0008392720874356787,
        "Eccentricity": 0.0,
        "Inclination(deg)": 45.0,
        "Latitude(deg)": 23.094797023867212,
        "Longitude(deg)": 155.06743788925849,
        "Mean Anomaly(deg)": 33.57711596349858,
        "RAAN(deg)": 229.99920775168198,
        "Satellite Name": "Constellation 1 1014",
        "Satellite Number": 1014,
        "Semi-Major Axis(m)": 7083131.272910544,
        "Time(s)": 14
    },
    {
        "Altitude(m)": 703314.3023444877,
        "Argument of Periapsis(deg)": 0.0008992200936810842,
        "Eccentricity": 0.0,
        "Inclination(deg)": 45.0,
        "Latitude(deg)": 23.133882089047905,
        "Longitude(deg)": 155.113961956538,
        "Mean Anomaly(deg)": 33.63781710374846,
        "RAAN(deg)": 229.99915116251643,
        "Satellite Name": "Constellation 1 1014",
        "Satellite Number": 1014,
        "Semi-Major Axis(m)": 7083131.272910544,
        "Time(s)": 15
    },
    {
        "Altitude(m)": 703318.6030247431,
        "Argument of Periapsis(deg)": 0.0009591680999264898,
        "Eccentricity": 0.0,
        "Inclination(deg)": 45.0,
        "Latitude(deg)": 23.17295070934377,
        "Longitude(deg)": 155.16051553568602,
        "Mean Anomaly(deg)": 33.69851824399835,
        "RAAN(deg)": 229.99909457335087,
        "Satellite Name": "Constellation 1 1014",
        "Satellite Number": 1014,
        "Semi-Major Axis(m)": 7083131.272910544,
        "Time(s)": 16
    },
    {
        "Altitude(m)": 703322.9149510062,
        "Argument of Periapsis(deg)": 0.0010191161061718953,
        "Eccentricity": 0.0,
        "Inclination(deg)": 45.0,
        "Latitude(deg)": 23.21200284455244,
        "Longitude(deg)": 155.2070985186525,
        "Mean Anomaly(deg)": 33.75921938424829,
        "RAAN(deg)": 229.99903798418532,
        "Satellite Name": "Constellation 1 1014",
        "Satellite Number": 1014,
        "Semi-Major Axis(m)": 7083131.272910544,
        "Time(s)": 17
    },
    {
        "Altitude(m)": 703327.2380879899,
        "Argument of Periapsis(deg)": 0.001079064112417301,
        "Eccentricity": 0.0,
        "Inclination(deg)": 45.0,
        "Latitude(deg)": 23.251038454413486,
        "Longitude(deg)": 155.2537109655015,
        "Mean Anomaly(deg)": 33.81992052449817,
        "RAAN(deg)": 229.99898139501977,
        "Satellite Name": "Constellation 1 1014",
        "Satellite Number": 1014,
        "Semi-Major Axis(m)": 7083131.272910544,
        "Time(s)": 18
    }
]